{"type": "FeatureCollection", "features": [ {"type": "Feature", "properties": {"norad_id": 67016, "name": "STARLINK-36120", "group": "last-30-days", "lat": 3.7497128225548693, "lon": 121.71419059703446, "alt_km": 294.73926188495534, "timestamp": "2025-12-19T20:42:58.815837+00:00", "meta": {"OBJECT_NAME": "STARLINK-36120", "OBJECT_ID": "2025-293P", "EPOCH": "2025-12-19T06:00:02.000160", "MEAN_MOTION": 15.94813825, "ECCENTRICITY": 0.00039133, "INCLINATION": 69.9948, "RA_OF_ASC_NODE": 304.8684, "ARG_OF_PERICENTER": 269.6957, "MEAN_ANOMALY": 348.4719, "EPHEMERIS_TYPE": 0, "CLASSIFICATION_TYPE": "U", "NORAD_CAT_ID": 67016, "ELEMENT_SET_NO": 999, "REV_AT_EPOCH": 130, "BSTAR": -0.0029173849, "MEAN_MOTION_DOT": -0.01121356, "MEAN_MOTION_DDOT": 0.00038425356}, "tle": {"line1": "1 67016U 25293P   25353.25002315 -.01121356  38425-3 -29174-2 0  9998", "line2": "2 67016  69.9948 304.8684 0003913 269.6957 348.4719 15.94813825  1306"}}, "geometry": {"type": "Point", "coordinates": [121.71419059703446, 3.7497128225548693]}}, {"type": "Feature", "properties": {"norad_id": 67017, "name": "STARLINK-35498", "group": "last-30-days", "lat": -0.670082597969725, "lon": 123.32085184201738, "alt_km": 294.8796731403236, "timestamp": "2025-12-19T20:42:58.815847+00:00", "meta": {"OBJECT_NAME": "STARLINK-35498", "OBJECT_ID": "2025-293Q", "EPOCH": "2025-12-19T06:00:02.000160", "MEAN_MOTION": 15.94949617, "ECCENTRICITY": 0.00039444, "INCLINATION": 69.9943, "RA_OF_ASC_NODE": 304.863, "ARG_OF_PERICENTER": 271.0559, "MEAN_ANOMALY": 351.5421, "EPHEMERIS_TYPE": 0, "CLASSIFICATION_TYPE": "U", "NORAD_CAT_ID": 67017, "ELEMENT_SET_NO": 999, "REV_AT_EPOCH": 130, "BSTAR": -0.0029493915, "MEAN_MOTION_DOT": -0.01141727, "MEAN_MOTION_DDOT": 0.00039779052}, "tle": {"line1": "1 67017U 25293Q   25353.25002315 -.01141727  39779-3 -29494-2 0  9991", "line2": "2 67017  69.9943 304.8630 0003944 271.0559 351.5421 15.94949617  1306"}}, "geometry": {"type": "Point", "coordinates": [123.32085184201738, -0.670082597969725]}}, {"type": "Feature", "properties": {"norad_id": 67018, "name": "STARLINK-36106", "group": "last-30-days", "lat": -2.820358259271835, "lon": 124.10213322037389, "alt_km": 294.94673411484655, "timestamp": "2025-12-19T20:42:58.815857+00:00", "meta": {"OBJECT_NAME": "STARLINK-36106", "OBJECT_ID": "2025-293R", "EPOCH": "2025-12-19T06:00:02.000160", "MEAN_MOTION": 15.95006167, "ECCENTRICITY": 0.00040092, "INCLINATION": 69.9944, "RA_OF_ASC_NODE": 304.8601, "ARG_OF_PERICENTER": 272.4859, "MEAN_ANOMALY": 352.27, "EPHEMERIS_TYPE": 0, "CLASSIFICATION_TYPE": "U", "NORAD_CAT_ID": 67018, "ELEMENT_SET_NO": 999, "REV_AT_EPOCH": 130, "BSTAR": -0.0029274604, "MEAN_MOTION_DOT": -0.0113674, "MEAN_MOTION_DDOT": 0.00039482144}, "tle": {"line1": "1 67018U 25293R   25353.25002315 -.01136740  39482-3 -29275-2 0  9999", "line2": "2 67018  69.9944 304.8601 0004009 272.4859 352.2700 15.95006167  1300"}}, "geometry": {"type": "Point", "coordinates": [124.10213322037389, -2.820358259271835]}}, {"type": "Feature", "properties": {"norad_id": 67019, "name": "STARLINK-35688", "group": "last-30-days", "lat": -4.819850566318564, "lon": 124.83165513758598, "alt_km": 294.87852398039104, "timestamp": "2025-12-19T20:42:58.815870+00:00", "meta": {"OBJECT_NAME": "STARLINK-35688", "OBJECT_ID": "2025-293S", "EPOCH": "2025-12-19T06:00:02.000160", "MEAN_MOTION": 15.95063458, "ECCENTRICITY": 0.00039425, "INCLINATION": 69.9941, "RA_OF_ASC_NODE": 304.8577, "ARG_OF_PERICENTER": 270.9169, "MEAN_ANOMALY": 355.8447, "EPHEMERIS_TYPE": 0, "CLASSIFICATION_TYPE": "U", "NORAD_CAT_ID": 67019, "ELEMENT_SET_NO": 999, "REV_AT_EPOCH": 135, "BSTAR": -0.0029275651, "MEAN_MOTION_DOT": -0.01140203, "MEAN_MOTION_DDOT": 0.00039727972}, "tle": {"line1": "1 67019U 25293S   25353.25002315 -.01140203  39728-3 -29276-2 0  9993", "line2": "2 67019  69.9941 304.8577 0003942 270.9169 355.8447 15.95063458  1350"}}, "geometry": {"type": "Point", "coordinates": [124.83165513758598, -4.819850566318564]}}, {"type": "Feature", "properties": {"norad_id": 67020, "name": "STARLINK-36172", "group": "last-30-days", "lat": -7.373594001781767, "lon": 125.77064871386179, "alt_km": 294.9712400465469, "timestamp": "2025-12-19T20:42:58.815882+00:00", "meta": {"OBJECT_NAME": "STARLINK-36172", "OBJECT_ID": "2025-293T", "EPOCH": "2025-12-19T06:00:02.000160", "MEAN_MOTION": 15.95145541, "ECCENTRICITY": 0.00039265, "INCLINATION": 69.994, "RA_OF_ASC_NODE": 304.8549, "ARG_OF_PERICENTER": 272.7389, "MEAN_ANOMALY": 356.5816, "EPHEMERIS_TYPE": 0, "CLASSIFICATION_TYPE": "U", "NORAD_CAT_ID": 67020, "ELEMENT_SET_NO": 999, "REV_AT_EPOCH": 130, "BSTAR": -0.0029545692, "MEAN_MOTION_DOT": -0.01155632, "MEAN_MOTION_DDOT": 0.00040760036}, "tle": {"line1": "1 67020U 25293T   25353.25002315 -.01155632  40760-3 -29546-2 0  9995", "line2": "2 67020  69.9940 304.8549 0003926 272.7389 356.5816 15.95145541  1303"}}, "geometry": {"type": "Point", "coordinates": [125.77064871386179, -7.373594001781767]}}, {"type": "Feature", "properties": {"norad_id": 67021, "name": "STARLINK-36184", "group": "last-30-days", "lat": -9.696069075949891, "lon": 126.63396872638182, "alt_km": 294.8400547804122, "timestamp": "2025-12-19T20:42:58.815895+00:00", "meta": {"OBJECT_NAME": "STARLINK-36184", "OBJECT_ID": "2025-293U", "EPOCH": "2025-12-19T06:00:02.000160", "MEAN_MOTION": 15.95203231, "ECCENTRICITY": 0.00039889, "INCLINATION": 69.9942, "RA_OF_ASC_NODE": 304.8517, "ARG_OF_PERICENTER": 270.8146, "MEAN_ANOMALY": 0.8436, "EPHEMERIS_TYPE": 0, "CLASSIFICATION_TYPE": "U", "NORAD_CAT_ID": 67021, "ELEMENT_SET_NO": 999, "REV_AT_EPOCH": 130, "BSTAR": -0.0029233689, "MEAN_MOTION_DOT": -0.01147072, "MEAN_MOTION_DDOT": 0.00040228885}, "tle": {"line1": "1 67021U 25293U   25353.25002315 -.01147072  40229-3 -29234-2 0  9999", "line2": "2 67021  69.9942 304.8517 0003988 270.8146   0.8436 15.95203231  1307"}}, "geometry": {"type": "Point", "coordinates": [126.63396872638182, -9.696069075949891]}}, {"type": "Feature", "properties": {"norad_id": 67022, "name": "STARLINK-36209", "group": "last-30-days", "lat": -12.423279212950536, "lon": 127.66541268051954, "alt_km": 294.7813488113061, "timestamp": "2025-12-19T20:42:58.815905+00:00", "meta": {"OBJECT_NAME": "STARLINK-36209", "OBJECT_ID": "2025-293V", "EPOCH": "2025-12-19T06:00:02.000160", "MEAN_MOTION": 15.95292272, "ECCENTRICITY": 0.00038959, "INCLINATION": 69.9939, "RA_OF_ASC_NODE": 304.8488, "ARG_OF_PERICENTER": 269.7296, "MEAN_ANOMALY": 4.664, "EPHEMERIS_TYPE": 0, "CLASSIFICATION_TYPE": "U", "NORAD_CAT_ID": 67022, "ELEMENT_SET_NO": 999, "REV_AT_EPOCH": 130, "BSTAR": -0.0029546482, "MEAN_MOTION_DOT": -0.01164679, "MEAN_MOTION_DDOT": 0.00041413678}, "tle": {"line1": "1 67022U 25293V   25353.25002315 -.01164679  41414-3 -29546-2 0  9995", "line2": "2 67022  69.9939 304.8488 0003895 269.7296   4.6640 15.95292272  1303"}}, "geometry": {"type": "Point", "coordinates": [127.66541268051954, -12.423279212950536]}}, {"type": "Feature", "properties": {"norad_id": 67023, "name": "STARLINK-36191", "group": "last-30-days", "lat": -14.644872153795077, "lon": 128.52176181539565, "alt_km": 294.8616465122068, "timestamp": "2025-12-19T20:42:58.815917+00:00", "meta": {"OBJECT_NAME": "STARLINK-36191", "OBJECT_ID": "2025-293W", "EPOCH": "2025-12-19T06:00:02.000160", "MEAN_MOTION": 15.95351955, "ECCENTRICITY": 0.00039458, "INCLINATION": 69.9939, "RA_OF_ASC_NODE": 304.8455, "ARG_OF_PERICENTER": 272.9258, "MEAN_ANOMALY": 3.7048, "EPHEMERIS_TYPE": 0, "CLASSIFICATION_TYPE": "U", "NORAD_CAT_ID": 67023, "ELEMENT_SET_NO": 999, "REV_AT_EPOCH": 130, "BSTAR": -0.0029322859, "MEAN_MOTION_DOT": -0.01159639, "MEAN_MOTION_DDOT": 0.00041109158}, "tle": {"line1": "1 67023U 25293W   25353.25002315 -.01159639  41109-3 -29323-2 0  9990", "line2": "2 67023  69.9939 304.8455 0003945 272.9258   3.7048 15.95351955  1304"}}, "geometry": {"type": "Point", "coordinates": [128.52176181539565, -14.644872153795077]}}, {"type": "Feature", "properties": {"norad_id": 67024, "name": "STARLINK-36192", "group": "last-30-days", "lat": -17.167858899872815, "lon": 129.5184294698782, "alt_km": 294.70769484901575, "timestamp": "2025-12-19T20:42:58.815928+00:00", "meta": {"OBJECT_NAME": "STARLINK-36192", "OBJECT_ID": "2025-293X", "EPOCH": "2025-12-19T06:00:02.000160", "MEAN_MOTION": 15.95434082, "ECCENTRICITY": 0.00039166, "INCLINATION": 69.9939, "RA_OF_ASC_NODE": 304.8428, "ARG_OF_PERICENTER": 270.4958, "MEAN_ANOMALY": 8.6732, "EPHEMERIS_TYPE": 0, "CLASSIFICATION_TYPE": "U", "NORAD_CAT_ID": 67024, "ELEMENT_SET_NO": 999, "REV_AT_EPOCH": 130, "BSTAR": -0.0029584129, "MEAN_MOTION_DOT": -0.01174979, "MEAN_MOTION_DDOT": 0.00042153837}, "tle": {"line1": "1 67024U 25293X   25353.25002315 -.01174979  42154-3 -29584-2 0  9995", "line2": "2 67024  69.9939 304.8428 0003916 270.4958   8.6732 15.95434082  1300"}}, "geometry": {"type": "Point", "coordinates": [129.5184294698782, -17.167858899872815]}}, {"type": "Feature", "properties": {"norad_id": 67025, "name": "STARLINK-36178", "group": "last-30-days", "lat": -19.197486749253542, "lon": 130.3409575767747, "alt_km": 294.62271091525054, "timestamp": "2025-12-19T20:42:58.815938+00:00", "meta": {"OBJECT_NAME": "STARLINK-36178", "OBJECT_ID": "2025-293Y", "EPOCH": "2025-12-19T06:00:02.000160", "MEAN_MOTION": 15.95495647, "ECCENTRICITY": 0.00039375, "INCLINATION": 69.9938, "RA_OF_ASC_NODE": 304.8401, "ARG_OF_PERICENTER": 270.1797, "MEAN_ANOMALY": 11.0342, "EPHEMERIS_TYPE": 0, "CLASSIFICATION_TYPE": "U", "NORAD_CAT_ID": 67025, "ELEMENT_SET_NO": 999, "REV_AT_EPOCH": 130, "BSTAR": -0.0029566706, "MEAN_MOTION_DOT": -0.01178155, "MEAN_MOTION_DDOT": 0.00042391435}, "tle": {"line1": "1 67025U 25293Y   25353.25002315 -.01178155  42391-3 -29567-2 0  9990", "line2": "2 67025  69.9938 304.8401 0003937 270.1797  11.0342 15.95495647  1301"}}, "geometry": {"type": "Point", "coordinates": [130.3409575767747, -19.197486749253542]}}]}